ORBCOMM FM09            
1 25116U 97084E   22270.72725962  .00000815  00000+0  30291-3 0  9997
2 25116  45.0172  71.7568 0006712 230.0440 129.9820 14.39737709298076
ORBCOMM FM05            
1 25117U 97084F   22270.66186302  .00000732  00000+0  27556-3 0  9998
2 25117  45.0173  71.8332 0002898 249.7007 110.3531 14.39966651297156
ORBCOMM FM06            
1 25118U 97084G   22270.73354238  .00000867  00000+0  31877-3 0  9992
2 25118  45.0165  71.3582 0001963 254.0916 127.6269 14.39822811298081
ORBCOMM FM07            
1 25119U 97084H   22270.77042492  .00000829  00000+0  30703-3 0  9998
2 25119  45.0161  71.5302 0003676 241.4883 118.5596 14.39804093298080
INMARSAT 3-F5           
1 25153U 98006B   22270.73605053 -.00000282  00000+0  00000+0 0  9992
2 25153   6.6228  65.0662 0004635 124.1687  28.3064  1.00273529 90274
ORBCOMM FM04            
1 25159U 98007C   22269.70405785  .00000543  00000+0  25627-3 0  9999
2 25159 107.9891 262.3313 0043570 181.4509 178.6508 14.30458511281835
CELESTIS-02 & TAURUS R/B
1 25160U 98007D   22271.21003737 -.00000022  00000+0  47941-4 0  9998
2 25160 107.9898 113.6825 0064298 293.7535 166.8062 14.21647559277680
UFO 8 (USA 138)         
1 25258U 98016A   22270.64922623  .00000057  00000+0  00000+0 0  9993
2 25258   9.5355  29.4604 0002072 135.4982 256.7307  1.00308635 90239
NOAA 15                 
1 25338U 98030A   22271.13164648  .00000129  00000+0  71926-4 0  9998
2 25338  98.6377 299.2936 0010318   4.7621 355.3655 14.26174563267901
TECHSAT 1B (GO-32)      
1 25397U 98043D   22270.60994280  .00000048  00000+0  40611-4 0  9998
2 25397  98.8277 221.3917 0001724 134.5916 225.5403 14.23772592257969
ORBCOMM FM18            
1 25414U 98046B   22271.11423278  .00000822  00000+0  34413-3 0  9994
2 25414  44.9942 186.6610 0005444 341.7570  18.3081 14.33652686261703
ORBCOMM FM19            
1 25415U 98046C   22271.03389091  .00000705  00000+0  30284-3 0  9992
2 25415  44.9950 187.8894 0004338 333.4514  31.8110 14.33585003261696
ORBCOMM FM20            
1 25416U 98046D   22271.13147936  .00000559  00000+0  25090-3 0  9990
2 25416  44.9948 187.8663 0001590 324.1810  35.8929 14.33504073261657
ORBCOMM FM15            
1 25418U 98046F   22270.73313490  .00000678  00000+0  29270-3 0  9993
2 25418  44.9978 191.2663 0004624 353.6069  39.4613 14.33677862261472
ORBCOMM FM14            
1 25419U 98046G   22270.88198323  .00000814  00000+0  34070-3 0  9992
2 25419  44.9972 190.1493 0003561 341.7567 130.2084 14.33725454261446
ORBCOMM FM13            
1 25420U 98046H   22271.12300680  .00000700  00000+0  30168-3 0  9991
2 25420  44.9983 191.6267 0005849 342.3139  17.7503 14.33441410261709
ASTRA 2A                
1 25462U 98050A   22270.92462583  .00000075  00000+0  00000+0 0  9993
2 25462   3.6537  84.4409 0003006 115.4844 196.8461  1.00273086 32715
ORBCOMM FM21            
1 25475U 98053A   22270.87005472  .00000589  00000+0  26176-3 0  9990
2 25475  45.0092 276.6732 0002578 284.3664  75.6896 14.33478808254551
ORBCOMM FM23            
1 25477U 98053C   22270.74757241  .00000545  00000+0  24646-3 0  9998
2 25477  45.0093 279.5481 0003638 284.5312  75.5131 14.33387812254686
ORBCOMM FM27            
1 25481U 98053G   22270.70477150  .00000599  00000+0  26525-3 0  9994
2 25481  45.0067 278.1211 0001627 278.6154  81.4508 14.33510804254922
SCD 2                   
1 25504U 98060A   22270.38765142  .00000381  00000+0  57192-4 0  9997
2 25504  24.9946 163.2698 0017208 177.9850 345.2744 14.44234003263591
ISS (ZARYA)             
1 25544U 98067A   22271.29875188  .00011405  00000+0  20504-3 0  9996
2 25544  51.6445 185.7292 0002377 302.6655 202.5977 15.50344723361171
SWAS                    
1 25560U 98071A   22270.75317351  .00001255  00000+0  12282-3 0  9998
2 25560  69.8972  88.3760 0007536 189.4581 170.6435 14.95025440293318
GLOBALSTAR M023         
1 25621U 99004A   22271.15780066 -.00000087  00000+0  92985-4 0  9997
2 25621  52.0097 196.9749 0010588  92.7300  45.3793 12.62405320 90396
SKYNET 4E               
1 25639U 99009B   22270.05327115 -.00000027  00000+0  00000+0 0  9997
2 25639  11.2976  16.3682 0003686 174.1949 193.0283  1.00276039 37764
GLOBALSTAR M037         
1 25652U 99012D   22270.36675090 -.00000080  00000+0  13034-3 0  9992
2 25652  52.0022 330.3768 0002160 138.5235 301.0521 12.62355311 85755
LANDSAT 7               
1 25682U 99020A   22271.11008726  .00000235  00000+0  58306-4 0  9997
2 25682  97.9697 315.2592 0001553  93.0863 267.0527 14.59806995247549
DLR-TUBSAT              
1 25757U 99029B   22270.43082982  .00000067  00000+0  28373-4 0  9993
2 25757  98.4953 214.0260 0014706 162.6086 197.5615 14.51520266236072
CXO                     
1 25867U 99040B   22273.82516906  .00001071  00000+0  00000+0 0  9990
2 25867  42.4697 226.2530 8915571 239.8069   0.6749  0.37811419 23358
ABS-7                   
1 25894U 99046A   22270.81507590 -.00000282  00000+0  00000+0 0  9995
2 25894   3.0136  86.5266 0004716  56.6113 301.8473  0.99977275 83514
ABS-6                   
1 25924U 99053A   22270.82740271 -.00000115  00000+0  00000+0 0  9998
2 25924   0.0216 130.4739 0001060  33.2993 299.6917  1.00271920 84238
NAVSTAR 46 (USA 145)    
1 25933U 99055A   22270.89664197 -.00000076  00000+0  00000+0 0  9995
2 25933  52.3752 354.2560 0141076 134.8289  26.7589  2.00555003168335
AMC-4 (GE-4)            
1 25954U 99060A   22270.63188483  .00000093  00000+0  00000+0 0  9993
2 25954   1.7708  90.6246 0002728  96.3869 271.9815  1.00272370 29935
UFO 10 (USA 146)        
1 25967U 99063A   22270.84398178 -.00000179  00000+0  00000+0 0  9993
2 25967   8.8353  33.0690 0005541 149.8775 104.7227  1.00272391 83723
ORBCOMM FM30            
1 25980U 99065A   22270.79990932  .00000528  00000+0  24027-3 0  9996
2 25980  45.0325  94.7690 0006351  91.8456 268.3118 14.33423048191752
ORBCOMM FM31            
1 25981U 99065B   22270.77541544  .00000464  00000+0  21728-3 0  9990
2 25981  45.0235  89.1061 0003611 118.4389 241.6821 14.33451623191306
ORBCOMM FM32            
1 25982U 99065C   22270.81863472  .00000365  00000+0  18508-3 0  9995
2 25982  45.0168  98.3789 0006175 118.2610 241.8860 14.32436343192008
ORBCOMM FM33            
1 25983U 99065D   22270.73249250  .00000587  00000+0  24990-3 0  9997
2 25983  45.0317  23.2499 0008715 129.6410 344.2702 14.35716869193119
ORBCOMM FM36            
1 25984U 99065E   22270.83781171  .00000491  00000+0  22673-3 0  9992
2 25984  45.0380  98.0127 0002956  19.4789 340.6170 14.33480957192284
ORBCOMM FM35            
1 25985U 99065F   22270.92103243  .00000485  00000+0  22483-3 0  9993
2 25985  45.0403  99.1599 0003404 122.4841 237.6335 14.33445486192308
XMM-NEWTON              
1 25989U 99066A   22272.20208498  .00000131  00000+0  00000+0 0  9994
2 25989  69.8422 302.8585 5893472  85.6251 359.9419  0.50132005 16207
DMSP 5D-3 F15 (USA 147) 
1 25991U 99067A   22270.82735354  .00000125  00000+0  85924-4 0  9996
2 25991  99.0608 264.1896 0009069 257.9050 190.1699 14.16573608178268
TERRA                   
1 25994U 99068A   22271.20122094  .00000333  00000+0  83710-4 0  9996
2 25994  98.1283 340.7213 0001060  90.1358 327.5704 14.57161270211584
CELESTIS-03 & TAURUS R/B
1 26034U 99070C   22270.85438716  .00026047  00000+0  11434-2 0  9998
2 26034  98.3107 287.2279 0011237 132.5556 227.6627 15.21876285236630
GALAXY 11 (G-11)        
1 26038U 99071A   22270.86334128 -.00000156  00000+0  00000+0 0  9994
2 26038   3.2649  86.3216 0001021 197.0673 300.9596  1.00271450 83461
USA 148                 
1 26052U 00001A   22271.06970794  .00000049  00000+0  00000+0 0  9993
2 26052   9.6982  41.7680 0001857 168.0101   2.6419  1.00276670 18005
GLOBALSTAR M063         
1 26081U 00008A   22271.12779396 -.00000102  00000+0 -28048-3 0  9992
2 26081  51.9942 206.8406 0004074 213.3744 160.7835 11.86136238 39791
ASIASTAR                
1 26107U 00016A   22270.83758101 -.00000327  00000+0  00000+0 0  9990
2 26107   5.9146  71.1115 0004141 118.7436 223.2946  1.00274078 82297
IMAGE                   
1 26113U 00017A   22270.86687558  .00000275  00000+0  53865-2 0  9999
2 26113  94.9280 293.3507 7318295  84.1189 347.4154  1.68651877138595
USA 149 (DSP 20)        
1 26356U 00024A   22270.59258618  .00000103  00000+0  00000+0 0  9997
2 26356  12.1549  20.8314 0000852 349.7807  43.5512  1.00263644 19294
NAVSTAR 47 (USA 150)    
1 26360U 00025A   22270.77789060  .00000004  00000+0  00000+0 0  9993
2 26360  54.1441  74.6424 0047980 185.9096  54.5148  2.00565083164020
TDRS 8                  
1 26388U 00034A   22270.87039073 -.00000227  00000+0  00000+0 0  9994
2 26388  10.5275  41.8299 0017472 343.9924  23.5258  1.00273161 81563
CLUSTER II-FM7 (SAMBA)  
1 26410U 00041A   22272.94485364  .00000045  00000+0  00000+0 0  9993
2 26410 134.6388 348.8141 5877155 201.2076   0.5818  0.44229977 26030
CLUSTER II-FM6 (SALSA)  
1 26411U 00041B   22272.88901131  .00000007  00000+0  00000+0 0  9990
2 26411 137.4218 353.1992 7552608 206.3856   0.7009  0.44223544 14332
INTELSAT 9 (IS-9)       
1 26451U 00043A   22270.30635749 -.00000280  00000+0  00000+0 0  9994
2 26451   7.4263  60.5016 0002667 138.2065 227.6980  1.00271623 30522
CLUSTER II-FM5 (RUMBA)  
1 26463U 00045A   22272.89414830  .00000123  00000+0  00000+0 0  9996
2 26463 140.8982 353.4904 7057980 207.2781   0.7397  0.44223277 14200
CLUSTER II-FM8 (TANGO)  
1 26464U 00045B   22272.90017832  .00000046  00000+0  00000+0 0  9994
2 26464 134.6266 348.8039 5878076 201.1913   0.5889  0.44218709 14285
NSS-11 (AAP-1)          
1 26554U 00059A   22270.85359663  .00000029  00000+0  00000+0 0  9993
2 26554   0.0280  71.2941 0002266 128.3674 290.2641  1.00272060 27679
USA 153                 
1 26575U 00065A   22270.77345948 -.00000318  00000+0  00000+0 0  9997
2 26575   9.2706  45.0979 0001751 209.7471 164.4442  1.00266298 19312
